OBJECT_NAME,OBJECT_ID,EPOCH,MEAN_MOTION,ECCENTRICITY,INCLINATION,RA_OF_ASC_NODE,ARG_OF_PERICENTER,MEAN_ANOMALY,EPHEMERIS_TYPE,CLASSIFICATION_TYPE,NORAD_CAT_ID,ELEMENT_SET_NO,REV_AT_EPOCH,BSTAR,MEAN_MOTION_DOT,MEAN_MOTION_DDOT
ELEKTRO-L 3,2019-095A,2026-05-13T20:02:13.488576,1.00271561,.0001179,0.1670,79.1865,330.5441,198.3739,0,U,44903,999,2336,0,-.83E-6,0
GONETS-M 14,2019-096A,2026-05-13T22:00:19.797120,12.42869272,.0012215,82.5197,105.8862,225.2307,134.7780,0,U,44905,999,28942,.60388E-3,.93E-6,0
GONETS-M 15,2019-096B,2026-05-13T20:46:48.451584,12.42870581,.001392,82.5217,106.3739,250.5446,109.4130,0,U,44906,999,28938,.8888E-3,.133E-5,0
GONETS-M 16,2019-096C,2026-05-13T21:25:25.112064,12.42891566,.0009893,82.5163,105.3258,297.8641,62.1436,0,U,44907,999,28937,.13996E-2,.204E-5,0
RS-44 & BREEZE-KM R/B,2019-096E,2026-05-13T08:53:51.130752,12.79748094,.0216652,82.5240,2.8443,225.6057,132.7128,0,U,44909,999,29789,.1776E-4,.14E-6,0
JILIN-1 KUANFU 01,2020-003A,2026-05-13T20:10:47.071776,15.10521603,.0011164,97.5037,208.4701,65.5034,294.7359,0,U,45016,999,35014,.11059E-3,.1761E-4,0
XINGYUN-2 01,2020-028A,2026-05-13T18:55:44.213952,15.11656167,.0008331,97.4863,126.8771,332.9143,27.1651,0,U,45602,999,32964,.10016E-3,.164E-4,0
XINGYUN-2 02,2020-028B,2026-05-13T19:51:36.996192,15.11391351,.0012046,97.5081,140.4265,37.1971,323.0091,0,U,45603,999,32964,.94449E-4,.1532E-4,0
HAIYANG-1D,2020-036A,2026-05-13T20:34:07.303872,14.34160792,.00015,98.4536,76.2856,245.1895,114.9134,0,U,45721,999,31005,-.19149E-4,-.97E-6,0
M2 PATHFINDER,2020-037E,2026-05-13T11:08:41.447040,15.04520999,.0010079,97.8165,324.3080,270.3149,89.6921,0,U,45727,999,32027,.11972E-3,.1614E-4,0
GAOFEN DUOMO (GFDM),2020-042A,2026-05-13T20:33:43.593120,14.76828485,.0010908,97.7769,194.9881,176.4097,183.7194,0,U,45856,999,31594,.12892E-4,.41E-6,0
ZIYUAN 3-03 (ZY 3-03),2020-051A,2026-05-13T20:26:42.731808,15.21477083,.0007093,97.2854,202.6830,75.3244,284.8778,0,U,45939,999,32212,.57418E-4,.1224E-4,0
NEMO-HD,2020-061F,2026-05-13T20:24:40.118112,15.43878860,.0002389,97.1945,196.1646,122.1408,238.0073,0,U,46277,999,31668,.15136E-3,.6784E-4,0
NAPA-1,2020-061BA,2026-05-13T20:12:38.763648,15.63723108,.0001813,97.2493,207.0081,141.3196,218.8194,0,U,46320,999,31636,.41162E-3,.3838E-3,0
JILIN-1 GAOFEN 3E,2020-065D,2026-05-13T19:27:10.173888,15.59793942,.0009695,97.2296,185.7223,282.6201,77.3971,0,U,46457,999,31439,.47981E-3,.38545E-3,0
JILIN-1 GAOFEN 3F,2020-065E,2026-05-13T20:18:18.146304,15.57598020,.0011235,97.2250,183.2429,270.3438,89.6530,0,U,46458,999,31435,.46873E-3,.34673E-3,0
JILIN-1 GAOFEN 3G,2020-065F,2026-05-13T19:36:32.738112,15.65573326,.0012382,97.2325,189.5111,169.1754,190.9775,0,U,46459,999,31455,.54839E-3,.55371E-3,0
JILIN-1 GAOFEN 3H,2020-065G,2026-05-13T20:28:39.762336,15.63108541,.0009136,97.2269,186.0549,116.6384,243.5811,0,U,46460,999,31451,.50201E-3,.45852E-3,0
HAIYANG-2C,2020-066A,2026-05-13T19:49:04.710144,13.83371924,.0010178,65.9975,300.8369,240.4638,119.5416,0,U,46469,999,28474,.47189E-4,-.29E-6,0
HJ-2A,2020-067A,2026-05-13T19:23:22.974720,14.76566524,.0004164,97.8825,212.9900,37.5561,322.5940,0,U,46478,999,30318,.58985E-4,.362E-5,0
HJ-2B,2020-067B,2026-05-13T20:15:26.148096,14.76510456,.0001353,97.8888,214.0216,73.0801,287.0558,0,U,46479,999,30319,.26878E-4,.138E-5,0
GONETS-M 17,2020-068A,2026-05-13T20:04:59.228832,12.42871196,.0023265,82.5021,8.8739,108.7667,251.5940,0,U,46486,999,25489,-.79082E-3,-.99E-6,0
GONETS-M 18,2020-068B,2026-05-13T21:08:33.940896,12.42870563,.0020614,82.4974,7.9776,105.0045,255.3318,0,U,46487,999,25488,-.49007E-3,-.58E-6,0
GONETS-M 19,2020-068C,2026-05-13T18:37:59.439360,12.42890782,.0014158,82.4999,8.4866,118.7337,241.5168,0,U,46488,999,25497,-.33579E-3,-.37E-6,0
DEKART,2020-068H,2026-05-13T19:55:46.153056,15.36527317,.0010538,97.8752,140.6628,55.9375,304.2867,0,U,46493,999,31049,.23127E-3,.8168E-4,0
NORBI,2020-068J,2026-05-13T19:48:17.324928,15.46952724,.000747,97.8645,146.8025,40.1285,320.0513,0,U,46494,999,31089,.30164E-3,.15127E-3,0
SALSAT,2020-068K,2026-05-13T20:45:12.532032,15.29275002,.0011464,97.8856,134.8553,68.2062,292.0395,0,U,46495,999,31011,.18943E-3,.5305E-4,0
