ELEKTRO-L 3             
1 44903U 19095A   26133.83487834 -.00000083  00000+0  00000+0 0  9994
2 44903   0.1670  79.1865 0001179 330.5441 198.3739  1.00271561 23367
GONETS-M 14             
1 44905U 19096A   26133.91689580  .00000093  00000+0  60388-3 0  9997
2 44905  82.5197 105.8862 0012215 225.2307 134.7780 12.42869272289426
GONETS-M 15             
1 44906U 19096B   26133.86583856  .00000133  00000+0  88880-3 0  9993
2 44906  82.5217 106.3739 0013920 250.5446 109.4130 12.42870581289386
GONETS-M 16             
1 44907U 19096C   26133.89265176  .00000204  00000+0  13996-2 0  9993
2 44907  82.5163 105.3258 0009893 297.8641  62.1436 12.42891566289376
RS-44 & BREEZE-KM R/B   
1 44909U 19096E   26133.37073068  .00000014  00000+0  17760-4 0  9999
2 44909  82.5240   2.8443 0216652 225.6057 132.7128 12.79748094297899
JILIN-1 KUANFU 01       
1 45016U 20003A   26133.84082259  .00001761  00000+0  11059-3 0  9997
2 45016  97.5037 208.4701 0011164  65.5034 294.7359 15.10521603350143
XINGYUN-2 01            
1 45602U 20028A   26133.78870618  .00001640  00000+0  10016-3 0  9990
2 45602  97.4863 126.8771 0008331 332.9143  27.1651 15.11656167329643
XINGYUN-2 02            
1 45603U 20028B   26133.82751153  .00001532  00000+0  94449-4 0  9991
2 45603  97.5081 140.4265 0012046  37.1971 323.0091 15.11391351329645
HAIYANG-1D              
1 45721U 20036A   26133.85702898 -.00000097  00000+0 -19149-4 0  9997
2 45721  98.4536  76.2856 0001500 245.1895 114.9134 14.34160792310059
M2 PATHFINDER           
1 45727U 20037E   26133.46436860  .00001614  00000+0  11972-3 0  9993
2 45727  97.8165 324.3080 0010079 270.3149  89.6921 15.04520999320279
GAOFEN DUOMO (GFDM)     
1 45856U 20042A   26133.85675455  .00000041  00000+0  12892-4 0  9996
2 45856  97.7769 194.9881 0010908 176.4097 183.7194 14.76828485315945
ZIYUAN 3-03 (ZY 3-03)   
1 45939U 20051A   26133.85188347  .00001224  00000+0  57418-4 0  9994
2 45939  97.2854 202.6830 0007093  75.3244 284.8778 15.21477083322124
NEMO-HD                 
1 46277U 20061F   26133.85046433  .00006784  00000+0  15136-3 0  9996
2 46277  97.1945 196.1646 0002389 122.1408 238.0073 15.43878860316683
NAPA-1                  
1 46320U 20061BA  26133.84211532  .00038380  00000+0  41162-3 0  9993
2 46320  97.2493 207.0081 0001813 141.3196 218.8194 15.63723108316365
JILIN-1 GAOFEN 3E       
1 46457U 20065D   26133.81053442  .00038545  00000+0  47981-3 0  9997
2 46457  97.2296 185.7223 0009695 282.6201  77.3971 15.59793942314399
JILIN-1 GAOFEN 3F       
1 46458U 20065E   26133.84604336  .00034673  00000+0  46873-3 0  9992
2 46458  97.2250 183.2429 0011235 270.3438  89.6530 15.57598020314351
JILIN-1 GAOFEN 3G       
1 46459U 20065F   26133.81704558  .00055371  00000+0  54839-3 0  9996
2 46459  97.2325 189.5111 0012382 169.1754 190.9775 15.65573326314552
JILIN-1 GAOFEN 3H       
1 46460U 20065G   26133.85323799  .00045852  00000+0  50201-3 0  9998
2 46460  97.2269 186.0549 0009136 116.6384 243.5811 15.63108541314510
HAIYANG-2C              
1 46469U 20066A   26133.82574896 -.00000029  00000+0  47189-4 0  9991
2 46469  65.9975 300.8369 0010178 240.4638 119.5416 13.83371924284748
HJ-2A                   
1 46478U 20067A   26133.80790480  .00000362  00000+0  58985-4 0  9994
2 46478  97.8825 212.9900 0004164  37.5561 322.5940 14.76566524303181
HJ-2B                   
1 46479U 20067B   26133.84405264  .00000138  00000+0  26878-4 0  9999
2 46479  97.8888 214.0216 0001353  73.0801 287.0558 14.76510456303197
GONETS-M 17             
1 46486U 20068A   26133.83679663 -.00000099  00000+0 -79082-3 0  9995
2 46486  82.5021   8.8739 0023265 108.7667 251.5940 12.42871196254891
GONETS-M 18             
1 46487U 20068B   26133.88094839 -.00000058  00000+0 -49007-3 0  9996
2 46487  82.4974   7.9776 0020614 105.0045 255.3318 12.42870563254881
GONETS-M 19             
1 46488U 20068C   26133.77638240 -.00000037  00000+0 -33579-3 0  9999
2 46488  82.4999   8.4866 0014158 118.7337 241.5168 12.42890782254971
DEKART                  
1 46493U 20068H   26133.83039529  .00008168  00000+0  23127-3 0  9996
2 46493  97.8752 140.6628 0010538  55.9375 304.2867 15.36527317310491
NORBI                   
1 46494U 20068J   26133.82520052  .00015127  00000+0  30164-3 0  9994
2 46494  97.8645 146.8025 0007470  40.1285 320.0513 15.46952724310892
SALSAT                  
1 46495U 20068K   26133.86472838  .00005305  00000+0  18943-3 0  9995
2 46495  97.8856 134.8553 0011464  68.2062 292.0395 15.29275002310111
